NORAD_CAT_ID,OBJECT_NAME,OBJECT_TYPE,EPOCH,MEAN_MOTION,ECCENTRICITY,INCLINATION,RA_OF_ASC_NODE,ARG_OF_PERICENTER,MEAN_ANOMALY,BSTAR,MEAN_MOTION_DOT,MEAN_MOTION_DDOT,TLE_LINE0,TLE_LINE1,TLE_LINE2,SEMIMAJOR_AXIS,PERIOD,APOGEE,PERIGEE,DECAYED
53293.0,STARLINK-4148,PAYLOAD,2023-10-12 21:05:17,15.08845906,0.0001439,53.2167,159.2492,95.6272,264.4884,0.00020599,2.992e-05,0.0,0 STARLINK-4148,1 53293U 22086BD  23285.87867879  .00002992  00000-0  20599-3 0  9990,2 53293  53.2167 159.2492 0001439  95.6272 264.4884 15.08845906 68655,6917.862,95.437,540.723,538.732,0.0
53293.0,STARLINK-4148,PAYLOAD,2023-10-13 08:12:59,15.0884403,0.0001385,53.216,157.1672,97.6873,262.4277,0.00014527,2.025e-05,0.0,0 STARLINK-4148,1 53293U 22086BD  23286.34235870  .00002025  00000-0  14527-3 0  9994,2 53293  53.2160 157.1672 0001385  97.6873 262.4277 15.08844030 68723,6917.868,95.437,540.691,538.775,0.0
53293.0,STARLINK-4148,PAYLOAD,2023-10-13 22:31:27,15.08850351,0.0001519,53.2164,154.4937,108.6803,251.4354,0.00023925,3.523e-05,0.0,0 STARLINK-4148,1 53293U 22086BD  23286.93851637  .00003523  00000-0  23925-3 0  9990,2 53293  53.2164 154.4937 0001519 108.6803 251.4354 15.08850351 68813,6917.849,95.437,540.765,538.663,0.0
53293.0,STARLINK-4148,PAYLOAD,2023-10-14 00:06:50,15.08854752,0.0001512,53.2171,154.1951,104.9051,255.2109,0.00032548,4.898e-05,0.0,0 STARLINK-4148,1 53293U 22086BD  23287.00475448  .00004898  00000-0  32548-3 0  9998,2 53293  53.2171 154.1951 0001512 104.9051 255.2109 15.08854752 68663,6917.835,95.437,540.746,538.654,0.0
53293.0,STARLINK-4148,PAYLOAD,2023-10-14 08:03:46,15.08847445,0.0001271,53.2161,152.7056,92.2661,267.8476,0.00018647,2.682e-05,0.0,0 STARLINK-4148,1 53293U 22086BD  23287.33595451  .00002682  00000-0  18647-3 0  9994,2 53293  53.2161 152.7056 0001271  92.2661 267.8476 15.08847445 68713,6917.858,95.437,540.602,538.843,0.0
53293.0,STARLINK-4148,PAYLOAD,2023-10-14 14:25:19,15.0884412,0.0002223,53.2158,151.5176,86.158,273.9667,0.00013465,1.856e-05,0.0,0 STARLINK-4148,1 53293U 22086BD  23287.60091929  .00001856  00000-0  13465-3 0  9990,2 53293  53.2158 151.5176 0002223  86.1580 273.9667 15.08844120 68918,6917.868,95.437,541.271,538.195,0.0
53293.0,STARLINK-4148,PAYLOAD,2023-10-14 19:11:29,15.08832212,0.0001549,53.2159,150.6251,90.5405,269.5765,-0.00012248,-2.236e-05,0.0,0 STARLINK-4148,1 53293U 22086BD  23287.79964233 -.00002236  00000-0 -12248-3 0  9990,2 53293  53.2159 150.6251 0001549  90.5405 269.5765 15.08832212 68782,6917.904,95.438,540.841,538.698,0.0
53293.0,STARLINK-4148,PAYLOAD,2023-10-14 22:22:15,15.08834142,0.0001479,53.2161,150.0304,89.6602,270.456,-5.7456e-05,-1.202e-05,0.0,0 STARLINK-4148,1 53293U 22086BD  23287.93212338 -.00001202  00000-0 -57456-4 0  9991,2 53293  53.2161 150.0304 0001479  89.6602 270.4560 15.08834142 68966,6917.898,95.438,540.786,538.74,0.0
53293.0,STARLINK-4148,PAYLOAD,2023-10-15 07:54:34,15.08837519,0.0001513,53.2163,148.2458,88.9708,271.1457,3.6871e-05,2.99e-06,0.0,0 STARLINK-4148,1 53293U 22086BD  23288.32956288  .00000299  00000-0  36871-4 0  9995,2 53293  53.2163 148.2458 0001513  88.9708 271.1457 15.08837519 69027,6917.888,95.438,540.8,538.706,0.0
53293.0,STARLINK-4148,PAYLOAD,2023-10-15 20:37:39,15.08842192,0.000145,53.2161,145.8668,87.9047,272.2111,2.4038e-06,-2.5e-06,0.0,0 STARLINK-4148,1 53293U 22086BD  23288.85948194 -.00000250  00000-0  24038-5 0  9991,2 53293  53.2161 145.8668 0001450  87.9047 272.2111 15.08842192 68948,6917.874,95.437,540.742,538.736,0.0
53293.0,STARLINK-4148,PAYLOAD,2023-10-16 14:06:54,15.08840376,0.0001487,53.2159,142.5965,85.2397,274.8765,0.00027403,4.076e-05,0.0,0 STARLINK-4148,1 53293U 22086BD  23289.58812523  .00004076  00000-0  27403-3 0  9994,2 53293  53.2159 142.5965 0001487  85.2397 274.8765 15.08840376 69214,6917.879,95.438,540.773,538.716,0.0
53293.0,STARLINK-4148,PAYLOAD,2023-10-17 23:29:59,15.08846843,0.0001425,53.2135,136.3507,80.7104,279.4049,0.00012052,1.631e-05,0.0,0 STARLINK-4148,1 53293U 22086BD  23290.97916054  .00001631  00000-0  12052-3 0  9991,2 53293  53.2135 136.3507 0001425  80.7104 279.4049 15.08846843 69265,6917.859,95.437,540.71,538.739,0.0
53293.0,STARLINK-4148,PAYLOAD,2023-10-18 23:20:46,15.08846899,0.0001693,53.2147,131.8893,94.6011,265.5175,0.00012959,1.775e-05,0.0,0 STARLINK-4148,1 53293U 22086BD  23291.97275973  .00001775  00000-0  12959-3 0  9995,2 53293  53.2147 131.8893 0001693  94.6011 265.5175 15.08846899 69418,6917.859,95.437,540.895,538.553,0.0
53293.0,STARLINK-4148,PAYLOAD,2023-10-19 20:00:46,15.08863608,0.0004232,53.212,128.022,89.3152,270.8325,-0.00013708,-2.472e-05,0.0,0 STARLINK-4148,1 53293U 22086BD  23292.83387330 -.00002472  00000-0 -13708-3 0  9992,2 53293  53.2120 128.0220 0004232  89.3152 270.8325 15.08863608 69547,6917.808,95.436,542.601,536.746,0.0
53293.0,STARLINK-4148,PAYLOAD,2023-10-20 00:46:56,15.08843503,0.0002049,53.2146,127.1325,87.0115,273.1112,0.00047107,7.218e-05,0.0,0 STARLINK-4148,1 53293U 22086BD  23293.03260313  .00007218  00000-0  47107-3 0  9997,2 53293  53.2146 127.1325 0002049  87.0115 273.1112 15.08843503 69574,6917.87,95.437,541.152,538.317,0.0
53293.0,STARLINK-4148,PAYLOAD,2023-10-20 13:30:02,15.0883186,0.0001468,53.2147,124.7534,89.1982,270.9178,-9.1362e-06,-4.33e-06,0.0,0 STARLINK-4148,1 53293U 22086BD  23293.56252567 -.00000433  00000-0 -91362-5 0  9995,2 53293  53.2147 124.7534 0001468  89.1982 270.9178 15.08831860 69816,6917.905,95.438,540.786,538.755,0.0
53293.0,STARLINK-4148,PAYLOAD,2023-10-20 18:16:11,15.08836149,0.0001426,53.2158,123.8612,90.3811,269.7345,5.0326e-05,5.13e-06,0.0,0 STARLINK-4148,1 53293U 22086BD  23293.76124357  .00000513  00000-0  50326-4 0  9993,2 53293  53.2158 123.8612 0001426  90.3811 269.7345 15.08836149 69686,6917.892,95.438,540.744,538.771,0.0
53293.0,STARLINK-4148,PAYLOAD,2023-10-20 21:26:57,15.08838833,0.0001429,53.2158,123.2664,91.1231,268.9925,0.00011864,1.601e-05,0.0,0 STARLINK-4148,1 53293U 22086BD  23293.89372330  .00001601  00000-0  11864-3 0  9995,2 53293  53.2158 123.2664 0001429  91.1231 268.9925 15.08838833 69862,6917.884,95.438,540.738,538.76,0.0
53293.0,STARLINK-4148,PAYLOAD,2023-10-21 11:45:25,15.08840598,0.0001276,53.2159,120.5899,91.662,268.4518,0.00025716,3.807e-05,0.0,0 STARLINK-4148,1 53293U 22086BD  23294.48988353  .00003807  00000-0  25716-3 0  9990,2 53293  53.2159 120.5899 0001276  91.6620 268.4518 15.08840598 69954,6917.879,95.438,540.626,538.861,0.0
53293.0,STARLINK-4148,PAYLOAD,2023-10-21 19:42:21,15.08848973,0.0001226,53.2158,119.1031,92.039,268.0743,0.00047946,7.353e-05,0.0,0 STARLINK-4148,1 53293U 22086BD  23294.82108126  .00007353  00000-0  47946-3 0  9999,2 53293  53.2158 119.1031 0001226  92.0390 268.0743 15.08848973 69848,6917.853,95.437,540.566,538.87,0.0
53293.0,STARLINK-4148,PAYLOAD,2023-10-22 05:14:40,15.08847657,0.0001015,53.216,117.319,87.2139,272.8969,0.00022765,3.338e-05,0.0,0 STARLINK-4148,1 53293U 22086BD  23295.21851993  .00003338  00000-0  22765-3 0  9991,2 53293  53.2160 117.3190 0001015  87.2139 272.8969 15.08847657 69908,6917.857,95.437,540.424,539.02,0.0
53293.0,STARLINK-4148,PAYLOAD,2023-10-22 19:33:09,15.08830326,0.0001351,53.2158,114.6429,81.1074,279.0071,-6.885e-05,-1.383e-05,0.0,0 STARLINK-4148,1 53293U 22086BD  23295.81468968 -.00001383  00000-0 -68850-4 0  9999,2 53293  53.2158 114.6429 0001351  81.1074 279.0071 15.08830326 69991,6917.91,95.438,540.71,538.84,0.0
53293.0,STARLINK-4148,PAYLOAD,2023-10-23 19:23:56,15.08842491,0.000126,53.2154,110.1821,82.4995,277.614,0.00055367,8.535e-05,0.0,0 STARLINK-4148,1 53293U 22086BD  23296.80829202  .00008535  00000-0  55367-3 0  9993,2 53293  53.2154 110.1821 0001260  82.4995 277.6140 15.08842491 70145,6917.873,95.437,540.609,538.866,0.0
53293.0,STARLINK-4148,PAYLOAD,2023-10-23 22:34:42,15.08841195,0.0001308,53.2155,109.5866,82.2362,277.8778,0.00042538,6.489e-05,0.0,0 STARLINK-4148,1 53293U 22086BD  23296.94077176  .00006489  00000-0  42538-3 0  9995,2 53293  53.2155 109.5866 0001308  82.2362 277.8778 15.08841195 70325,6917.877,95.437,540.647,538.837,0.0
53293.0,STARLINK-4148,PAYLOAD,2023-10-24 11:17:47,15.08841899,0.0001284,53.2156,107.2082,80.8665,279.2472,0.00031131,4.67e-05,0.0,0 STARLINK-4148,1 53293U 22086BD  23297.47069185  .00004670  00000-0  31131-3 0  9992,2 53293  53.2156 107.2082 0001284  80.8665 279.2472 15.08841899 70243,6917.875,95.437,540.628,538.851,0.0
53293.0,STARLINK-4148,PAYLOAD,2023-10-25 20:40:53,15.08849377,0.000132,53.2161,100.9633,79.3813,280.7328,0.0001625,2.3e-05,0.0,0 STARLINK-4148,1 53293U 22086BD  23298.86172463  .00002300  00000-0  16250-3 0  9993,2 53293  53.2161 100.9633 0001320  79.3813 280.7328 15.08849377 70459,6917.852,95.437,540.63,538.804,0.0
53293.0,STARLINK-4148,PAYLOAD,2023-10-26 14:10:07,15.08843424,0.0001369,53.2149,97.6898,91.8555,268.2593,7.931e-05,9.75e-06,0.0,0 STARLINK-4148,1 53293U 22086BD  23299.59036536  .00000975  00000-0  79310-4 0  9997,2 53293  53.2149  97.6898 0001369  91.8555 268.2593 15.08843424 70727,6917.87,95.437,540.682,538.788,0.0
53293.0,STARLINK-4148,PAYLOAD,2023-10-26 17:20:53,15.08847709,0.0001378,53.216,97.0954,90.5614,269.5536,5.1144e-05,5.26e-06,0.0,0 STARLINK-4148,1 53293U 22086BD  23299.72284268  .00000526  00000-0  51144-4 0  9996,2 53293  53.2160  97.0954 0001378  90.5614 269.5536 15.08847709 70742,6917.857,95.437,540.675,538.769,0.0
53293.0,STARLINK-4148,PAYLOAD,2023-10-27 10:50:08,15.0884301,0.0001396,53.2167,93.8251,89.9437,270.1715,7.6235e-05,9.26e-06,0.0,0 STARLINK-4148,1 53293U 22086BD  23300.45148420  .00000926  00000-0  76235-4 0  9990,2 53293  53.2167  93.8251 0001396  89.9437 270.1715 15.08843010 70690,6917.871,95.437,540.702,538.77,0.0
53293.0,STARLINK-4148,PAYLOAD,2023-10-27 17:11:40,15.08845956,0.0001363,53.2166,92.6359,89.588,270.5269,0.00011783,1.588e-05,0.0,0 STARLINK-4148,1 53293U 22086BD  23300.71644186  .00001588  00000-0  11783-3 0  9990,2 53293  53.2166  92.6359 0001363  89.5880 270.5269 15.08845956 70898,6917.862,95.437,540.67,538.784,0.0
